LIME                    
1 62648U 25009AR  26068.73906781  .00013254  00000+0  47723-3 0  9995
2 62648  97.3985 151.4831 0001635  35.9029 324.2320 15.28703313 63766
STARLINK-35872          
1 66580U 25268Z   26068.11628635  .00053330  00000+0  19337-2 0  9990
2 66580  43.0025 350.1632 0002039 253.0464 107.0164 15.27576929 17874
